HAIYANG-2D              
1 48621U 21043A   26160.91841595 -.00000053  00000+0  25307-4 0  9997
2 48621  65.9999 322.7968 0011391 269.9759  90.0004 13.83375460255543
2021-050D               
1 48843U 21050D   26160.97843883  .00003825  00000+0  16437-3 0  9991
2 48843  97.3335 237.1783 0004036 299.1583  60.9250 15.23256264277868
TYVAK-0173              
1 48892U 21059P   26160.70247742  .00001595  00000+0  20559-3 0  9999
2 48892  96.0086 238.9195 0010707  61.8053 298.4245 14.81866274267137
MANDRAKE 2 ABLE         
1 48907U 21059AE  26160.83726174  .00021355  00000+0  32316-3 0  9991
2 48907  97.7041 350.0629 0005088  33.0297 327.1272 15.54694696275988
MANDRAKE 2 BAKER        
1 48908U 21059AF  26160.79025583  .00025540  00000+0  32696-3 0  9994
2 48908  97.7012 352.8332 0003559  34.1655 325.9828 15.59185868276142
PACE-1                  
1 48909U 21059AG  26160.80398454  .00088281  00000+0  50507-3 0  9999
2 48909  97.6778 358.1198 0000775 322.4329  37.6882 15.78597954276633
YAM-3                   
1 48915U 21059AN  26160.82962533  .00011454  00000+0  21795-3 0  9998
2 48915  97.6997 347.3055 0005676  35.4546 324.7080 15.48391841275859
FARADAY_PHOENIX         
1 48924U 21059AX  26160.79457180  .00131199  00000+0  81587-3 0  9995
2 48924  97.6831 358.0112 0002511 341.2869  18.8304 15.76584357276498
DEMO8 (TENZING)         
1 48951U 21059CA  26160.77594956  .00019953  00000+0  30175-3 0  9996
2 48951  97.7034 353.6329 0006908  23.1612 336.9951 15.54714444276154
NAPA-2                  
1 48963U 21059CN  26160.24301641  .00290503  35484-4  72516-3 0  9994
2 48963  97.6730 358.3052 0002669 251.6260 108.4724 15.95777302276541
FENGYUN 3E              
1 49008U 21062A   26160.94360140 -.00000308  00000+0 -12423-3 0  9991
2 49008  98.7497 164.4322 0002779  97.6684 262.4808 14.19902262255552
ISS (NAUKA)             
1 49044U 21066A   26160.77141112  .00008018  00000+0  14987-3 0  9993
2 49044  51.6331 336.7972 0006862 151.7869 208.3493 15.49688427570351
STARLINK-3100           
1 49144U 21082Q   26160.42962688  .00002179  00000+0  19029-3 0  9997
2 49144  70.0020  63.1435 0002656 258.5674 101.5187 14.98344678259723
CUTE                    
1 49263U 21088D   26160.20488512  .00130491  83754-5  42597-3 0  9998
2 49263  97.4195 258.7399 0008079 246.7432 113.2991 15.90636354261283
2021-091B               
1 49316U 21091B   26160.94337837  .00001814  00000+0  90972-4 0  9999
2 49316  97.4478 348.6292 0014936  68.1202 292.1619 15.18515556257882
SDGSAT 1                
1 49387U 21100A   26160.92311667  .00002781  00000+0  13255-3 0  9991
2 49387  97.2644 208.1422 0006920 329.8095  30.2740 15.19892379254817
TEIKYOSAT-4 (OORURI)    
1 49396U 21102B   26160.69626764  .00002195  00000+0  14068-3 0  9996
2 49396  97.3672 190.4707 0010991 325.4965  34.5550 15.09482485251599
Z-SAT                   
1 49399U 21102E   26160.94811362  .00004073  00000+0  20185-3 0  9991
2 49399  97.3335 196.4908 0014722 273.0241  86.9308 15.18211338252341
HIBARI                  
1 49400U 21102F   26160.68889737  .00009651  00000+0  31841-3 0  9994
2 49400  97.3243 206.6781 0010607 219.2086 140.8389 15.31578159253041
KOSEN-1                 
1 49402U 21102H   26160.67015037  .00007012  00000+0  26894-3 0  9990
2 49402  97.3194 202.9737 0012471 228.5965 131.4203 15.26731072252878
GLOBAL-14               
1 49469U 21106A   26159.77600881  .00028567  00000+0  49426-3 0  9997
2 49469  42.0063 341.0542 0017086 321.6139  38.3489 15.50184743256821
GAOFEN-3 02             
1 49495U 21109A   26160.90298274  .00000049  00000+0  28115-4 0  9993
2 49495  98.4094 169.1032 0003368  34.5767 325.5642 14.42216148239263
GLOBAL-12               
1 49772U 21115BA  26160.48139617  .00028673  00000+0  45598-3 0  9992
2 49772  53.1947  81.5788 0003448  53.5939 306.5390 15.53099141254702
GLOBAL-13               
1 49773U 21115BB  26160.10302467  .00018392  00000+0  38236-3 0  9995
2 49773  53.1969  93.0090 0004181  91.4086 268.7401 15.45724588254512
GLOBAL-17               
1 49949U 21120A   26160.10937778  .00023159  00000+0  37984-3 0  9991
2 49949  41.9940  97.4128 0014363 203.9461 156.0717 15.51823851253643
GLOBAL-16               
1 49950U 21120B   26160.11206314  .00021004  00000+0  37143-3 0  9993
2 49950  41.9946 100.9788 0012147 196.2575 163.7880 15.49786682253598
XW-3 (CAS-9)            
1 50466U 21131B   26160.97383811  .00000379  00000+0  13060-3 0  9995
2 50466  98.4971 253.4026 0005275 113.3866 246.7878 14.41350706234079
ION SCV-004             
1 50993U 22002K   26160.84632273  .00004828  00000+0  16677-3 0  9993
2 50993  97.2841 218.6429 0007962  32.6408 327.5324 15.30379425244171
ETV-A1                  
1 51060U 22002CE  26160.93400314  .00010402  00000+0  25810-3 0  9992
2 51060  97.2882 227.2608 0005323  29.5798 330.5748 15.40530292244720
BRO-5                   
1 51061U 22002CF  26160.94253792  .00029250  00000+0  58030-3 0  9991
2 51061  97.3001 234.5492 0004235   3.7339 356.3942 15.46968453245131
