OBJECT_NAME,OBJECT_ID,EPOCH,MEAN_MOTION,ECCENTRICITY,INCLINATION,RA_OF_ASC_NODE,ARG_OF_PERICENTER,MEAN_ANOMALY,EPHEMERIS_TYPE,CLASSIFICATION_TYPE,NORAD_CAT_ID,ELEMENT_SET_NO,REV_AT_EPOCH,BSTAR,MEAN_MOTION_DOT,MEAN_MOTION_DDOT
HAIYANG-2D,2021-043A,2026-06-09T22:02:31.138080,13.83375460,.00113918,65.9999,322.7968,269.9759,90.0004,0,U,48621,999,25554,.25306744E-4,-.53E-6,0
2021-050D,2021-050D,2026-06-09T23:28:57.114912,15.23256264,.00040362,97.3335,237.1783,299.1583,60.9250,0,U,48843,999,27786,.16436763E-3,.3825E-4,0
TYVAK-0173,2021-059P,2026-06-09T16:51:34.049088,14.81866274,.00107077,96.0086,238.9195,61.8053,298.4245,0,U,48892,999,26713,.20559061E-3,.1595E-4,0
MANDRAKE 2 ABLE,2021-059AE,2026-06-09T20:05:39.414336,15.54694696,.00050882,97.7041,350.0629,33.0297,327.1272,0,U,48907,999,27598,.32315835E-3,.21355E-3,0
MANDRAKE 2 BAKER,2021-059AF,2026-06-09T18:57:58.103712,15.59185868,.00035594,97.7012,352.8332,34.1655,325.9828,0,U,48908,999,27614,.32696346E-3,.2554E-3,0
PACE-1,2021-059AG,2026-06-09T19:17:44.264256,15.78597954,.00007752,97.6778,358.1198,322.4329,37.6882,0,U,48909,999,27663,.50507293E-3,.88281E-3,0
YAM-3,2021-059AN,2026-06-09T19:54:39.628512,15.48391841,.00056761,97.6997,347.3055,35.4546,324.7080,0,U,48915,999,27585,.21794955E-3,.11454E-3,0
FARADAY_PHOENIX,2021-059AX,2026-06-09T19:04:11.003520,15.76584357,.00025114,97.6831,358.0112,341.2869,18.8304,0,U,48924,999,27649,.81586806E-3,.131199E-2,0
DEMO8 (TENZING),2021-059CA,2026-06-09T18:37:22.041984,15.54714444,.00069086,97.7034,353.6329,23.1612,336.9951,0,U,48951,999,27615,.30174972E-3,.19953E-3,0
NAPA-2,2021-059CN,2026-06-09T05:49:56.617824,15.95777302,.00026691,97.6730,358.3052,251.6260,108.4724,0,U,48963,999,27654,.72515668E-3,.290503E-2,.35483944E-4
FENGYUN 3E,2021-062A,2026-06-09T22:38:47.160960,14.19902262,.00027791,98.7497,164.4322,97.6684,262.4808,0,U,49008,999,25555,-.12423381E-3,-.308E-5,0
ISS (NAUKA),2021-066A,2026-06-09T18:30:49.920768,15.49688427,.00068623,51.6331,336.7972,151.7869,208.3493,0,U,49044,999,57035,.1498737E-3,.8018E-4,0
STARLINK-3100,2021-082Q,2026-06-09T10:18:39.762432,14.98344678,.00026567,70.0020,63.1435,258.5674,101.5187,0,U,49144,999,25972,.19028656E-3,.2179E-4,0
CUTE,2021-088D,2026-06-09T04:55:02.074368,15.90636354,.0008079,97.4195,258.7399,246.7432,113.2991,0,U,49263,999,26128,.42597E-3,.130491E-2,.83754E-5
2021-091B,2021-091B,2026-06-09T22:38:27.891168,15.18515556,.00149367,97.4478,348.6292,68.1202,292.1619,0,U,49316,999,25788,.90971516E-4,.1814E-4,0
SDGSAT 1,2021-100A,2026-06-09T22:09:17.280288,15.19892379,.00069208,97.2644,208.1422,329.8095,30.2740,0,U,49387,999,25481,.13255265E-3,.2781E-4,0
TEIKYOSAT-4 (OORURI),2021-102B,2026-06-09T16:42:37.524096,15.09482485,.0010991,97.3672,190.4707,325.4965,34.5550,0,U,49396,999,25159,.14068142E-3,.2195E-4,0
Z-SAT,2021-102E,2026-06-09T22:45:17.016768,15.18211338,.00147222,97.3335,196.4908,273.0241,86.9308,0,U,49399,999,25234,.20184801E-3,.4073E-4,0
HIBARI,2021-102F,2026-06-09T16:32:00.732768,15.31578159,.0010607,97.3243,206.6781,219.2086,140.8389,0,U,49400,999,25304,.31841441E-3,.9651E-4,0
KOSEN-1,2021-102H,2026-06-09T16:05:00.991968,15.26731072,.00124718,97.3194,202.9737,228.5965,131.4203,0,U,49402,999,25287,.26893626E-3,.7012E-4,0
GLOBAL-14,2021-106A,2026-06-08T18:37:27.161184,15.50184743,.00170861,42.0063,341.0542,321.6139,38.3489,0,U,49469,999,25682,.49425997E-3,.28567E-3,0
GAOFEN-3 02,2021-109A,2026-06-09T21:40:17.708736,14.42216148,.00033681,98.4094,169.1032,34.5767,325.5642,0,U,49495,999,23926,.2811511E-4,.49E-6,0
GLOBAL-12,2021-115BA,2026-06-09T11:33:12.629088,15.53099141,.00034489,53.1947,81.5788,53.5939,306.5390,0,U,49772,999,25470,.45597996E-3,.28673E-3,0
GLOBAL-13,2021-115BB,2026-06-09T02:28:21.331488,15.45724588,.0004181,53.1969,93.0090,91.4086,268.7401,0,U,49773,999,25451,.38235845E-3,.18392E-3,0
GLOBAL-17,2021-120A,2026-06-09T02:37:30.240192,15.51823851,.00143637,41.9940,97.4128,203.9461,156.0717,0,U,49949,999,25364,.37983939E-3,.23159E-3,0
GLOBAL-16,2021-120B,2026-06-09T02:41:22.255296,15.49786682,.00121478,41.9946,100.9788,196.2575,163.7880,0,U,49950,999,25359,.37142955E-3,.21004E-3,0
XW-3 (CAS-9),2021-131B,2026-06-09T23:22:19.612704,14.41350706,.00052753,98.4971,253.4026,113.3866,246.7878,0,U,50466,999,23407,.13060006E-3,.379E-5,0
ION SCV-004,2022-002K,2026-06-09T20:18:42.283872,15.30379425,.00079623,97.2841,218.6429,32.6408,327.5324,0,U,50993,999,24417,.16676597E-3,.4828E-4,0
ETV-A1,2022-002CE,2026-06-09T22:24:57.871296,15.40530292,.00053231,97.2882,227.2608,29.5798,330.5748,0,U,51060,999,24472,.25810266E-3,.10402E-3,0
BRO-5,2022-002CF,2026-06-09T22:37:15.276288,15.46968453,.00042354,97.3001,234.5492,3.7339,356.3942,0,U,51061,999,24513,.58029851E-3,.2925E-3,0
